Country,City,Code,Depot Name,Address (Short),Latitude,Longitude,,
Denmark,Aarhus,AARA,Container Care A/S,"Beta 5, DK-8382 Hinnerup, Denmark",56.247,10.0532,,
Australia,Adelaide,ADL06,Medlog Australia Pty Ltd,"2 Elder Road, Largs North SA 5016, Australia",-34.8256,138.4911,,
Australia,Adelaide,ADLD,ACFS Port Logistics PTY LTD,"4 Martin Avenue, Gillman SA 5013, Australia",-34.8473,138.5263,,
Australia,Adelaide,ADLQ,Qube Logistics ADL,"Coghlan Road, Outer Harbor SA 5018, Australia",-34.7831,138.4867,,
New Zealand,Auckland,AKLCC,Jellicoe Container Park - Container Co AKL,"81 Jellicoe Rd, Panmure, Auckland 1072, New Zealand",-36.8996,174.8563,,
New Zealand,Auckland,AKLH,Metrobox Limited,"21A Savill Drive, Otahuhu, Auckland 2024, New Zealand",-36.9501,174.8416,,
New Zealand,Auckland,AKLI,Container Repairs & Sales Limited,"5/21 Morrin Road, Panmure, Auckland, New Zealand",-36.8971,174.8522,,
Spain,Algeciras,ALGA,Tecnica Y Manutencion (TYMSA/SAM Algeciras),"Ctra Cadiz-Malaga Numbr 1 (KM.110), Cadiz, 11203 Algerciras",36.1679,-5.4486,,
Chile,Antofagasta,ANFST,Sitrans Antofagasta,"Barrio Industrial, La Negra, Sitio 2 N° 50, Ruta del Cobre",-23.6017,-70.3953,,
Belgium,Antwerp,ANR15,ITACT NV,"Luithagen haven 18, 2030 Antwerp, Belgium",51.2856,4.3908,,
Belgium,Antwerp,ANRD,Mega Industrial Engineering,"Treurenborg 7, 2030 Antwerpen, Belgium",51.2563,4.4326,,
Belgium,Antwerp,ANRK,DR Depots Antwerp (Zwennis),"Muisbroeklaan 34A, 2030 Antwerp, Belgium",51.2782,4.3887,,
Belgium,Antwerp,ANRN,Antwerp Container Repair NV,"Kaai 1333, Beveren - Verrebroek, 9130 Antwerp, Belgium",51.3317,4.228,,
Belgium,Antwerp,ANRQ,Antwerp Container Company,"Quay 234 – Kragenweg 4, 2030 Antwerp, Belgium",51.2732,4.3729,,
Belgium,Antwerp,ANRQT,ACC – Triton depot,"Mannheimweg 1 – Quay 246, 2030 Antwerp, Belgium",51.2825,4.3761,,
Belgium,Antwerp,ANRT,CCIS Belgium,"Antwerpsebaan 13, kaai 708, 2040 Antwerp, Belgium",51.2878,4.354,,
Chile,Arica,ARIST,Sitrans Arica,"Avenida Argentina 3041, Barrio Industrial, Arica, Chile",-18.4856,-70.3201,,
Canada,Calgary,CGAA,Overland Container Transportation,"6620 86th Avenue S.E., Calgary AB, T2C 2S3, Canada",50.9817,-113.9382,,
Mexico,Altamira,ATMA,"Container-Care De Mexico, S.A.","Golfo de California S/N, Puerto de Altamira",22.4,-97.9167,,
Canada,Edmonton,EDME,Overland Container Transportation Services,"26550 Acheson Road, Acheson, AB",53.5424,-113.8062,,
Spain,Barcelona,BCND,Progeco Espana S.A.,"Puerto de Barcelona, 08039 Barcelona",41.3387,2.1369,,
UK,Birmingham,BHMA,S. Jones (Aldridge) Ltd.,"Linley Works, Anglian Road, Aldridge, Staffs",52.6053,-1.937,,
Spain,Bilbao,BIOA,Progeco Bilbao S.A.,"Puerto de Bilbao, Santurtzi, Bizkaia",43.3325,-3.025,,
Spain,Bilbao,BIOB,Tucabi Container S.L.,"Barrio Arriaga Sakoni 14, Erandio, Vizcaya",43.3095,-2.9755,,
Thailand,Bangkok,BKK02,"Srithai Freight Forwarder Co., Ltd.","5 Motorway Road (KM 18), Lat Krabang",13.7229,100.7895,,
Thailand,Bangkok,BKKC,Thai Eng Kong Container,"65 Moo 8 Bangchalong Bangplee, Samutprakarn",13.5951,100.6977,,
Thailand,Bangkok,BKKD,"FMC Services Co., Ltd.","582 Moo 1, Tumbon Srisajorakeyai, Bangsaothong",13.5833,100.7833,,
Thailand,Bangkok,BKKGF,Greating Fortune Container Service,"10 Moo 12 Sukhaphiban 6 road, Bangplee Yai",13.6083,100.717,,
Thailand,Bangkok,BKKM,Star Pacific Container Services,"60/3 Moo13, Bangna-Trad Km.9 Rd, Bangplee Yai",13.6136,100.7047,,
Indonesia,Belawan,BLWB,Pt. Mitra Jaya Bahari,"Jl. Raya Pelabuhan Gabion KM.0, Belawan",3.789,98.6931,,
Australia,Brisbane,BNED,ACFS Port Logistics PTY LTD,"Bishop Drive, Fisherman Islands, Wynnum",-27.3838,153.1872,,
Australia,Brisbane,BNEDEL,ACFS - E Link,"2-6 Bishop Drive, Brisbane",-27.383,153.186,,
Australia,Brisbane,BNEG,Tyne Container Services (QLD),"80 Canberra Street, Hemmant",-27.4322,153.124,,
Australia,Brisbane,BNEH,Qube Logistics,"14A Bingera Drive, Port of Brisbane",-27.3999,153.1643,,
France,Bordeaux,BODB,CCIS France - Bordeaux,"Zone Bordeaux Fret, Bruges",44.8892,-0.5799,,
Italy,Bologna,BOLA,Interporto Bologna SPA,"Interporto Bologna, Bentivoglio",44.622,11.3767,,
India,Mumbai,BOM13,YNV Consolidators,"Koproli, Uran Road, Mumbai",18.8829,72.9366,,
India,Mumbai,BOMC,Bay Container Terminal Pvt.,"Panvel Panjim Hwy, Shirdon, Raigad",18.9906,73.1161,,
India,Mumbai,BOMEFC,EFC Logistics India Pvt Ltd,"Veshvi, Uran, Mumbai",18.8239,72.957,,
Germany,Bremen,BRE04,Remain Gmbh Container-Depot & Repair,"Ludwig-Erhard-Str15, Bremen",53.0868,8.7818,,
Germany,Bremerhaven,BRV01,Atlantik Hafenbetriebe,"AM Nordhafen 2, Bremerhaven",53.5737,8.5622,,
Switzerland,Basle,BSLC,Contargo AG,"Grenzstrasse 149, Basel",47.5896,7.5766,,
Argentina,Buenos Aires,BUED,Hiperbaires SRL,"Ayolas y Sande s/n, Dock Sud Avellaneda",-34.6548,-58.3481,,
Korea,Busan,BUS22,Clean Sea Terminal Korea,"1416 CHEUNGSAN-RI, Yangsan-si",35.3386,129.0312,,
Korea,Busan,BUSF,Kukdong Total Logistics - Nam-gu Location,"255 Chungjang-daero, Dong-gu, Busan",35.1332,129.0597,,
Korea,Busan,BUSG,"Coolstar Co., Ltd.","294 Sinseon-ro, Nam Gu, Busan",35.1296,129.0848,,
Korea,Busan,BUSP,"New Daewon Co., Ltd","255 Chungjang-daero, Dong-gu, Busan",35.1332,129.0597,,
Korea,Busan,BUSQ,"DaeHo CTS Co., Ltd.","1336 Yongwon-dong, Jinhae-gu, Changwon",35.1506,128.6591,,
Korea,Busan,BUSS,"Seyang Logistics Co., Ltd. - Gangseo-gu","15-78 Sinhang 5-ro, Jinhae-gu, Changwon-si",35.1467,128.66,,
Korea,Busan,BUST,Hanta Logistics Corp.,"197-1 Garak-daero, Gangseo-gu, Busan",35.0986,128.9381,,
Netherlands,Bergen op Zoom,BZNA,BTT Multimodal Container Solutions B.v.,"Konijnenburgweg 56, Bergen op Zoom",51.5028,4.2881,,
Peru,Callao,CALC,Inversiones Maritimas,"Av. Nestor Gambetta 5502, Callao",-12.0117,-77.1355,,
Sri Lanka,Colombo,CBOA,McLarens Containers (Pvt) Ltd.,"776 Negombo Road, Welisara",7.0281,79.9026,,
India,Kolkata,CCUA,Bay Container Terminal Pvt.,"Dhobitalao Container Park, Calcutta",22.538,88.3055,,
China,Chengdu,CDUB,Shenzhen G-Fortune Depot,"Chengxiang town, Qingbaijiang district, Chengdu",30.693,104.252,,
Canada,Halifax,HALA2,Hunts Refrigeration,"890 Old Sambro Rd, Harrietsfield, NS",44.5488,-63.6705,,
Canada,Halifax,HALA,CTS Container & Trailer Service Ltd.,"33 Macdonald Avenue, Dartmouth, NS",44.6826,-63.5862,,
New Zealand,Christchurch,CHCB,LPC City Depot,"41 Chapmans Road, Woolston, Christchurch",-43.5584,172.6892,,
New Zealand,Christchurch,CHCG,SCS Christchurch,"End of Kennaway Road, Woolston, Christchurch",-43.5585,172.7011,,
Canada,Montreal,MONB,G.T. Container Services,"10,000 Maurice-Duplessis, Montreal, QC",45.6279,-73.5904,,
Canada,MONG,Ray-Mont Logistics,"5227 rue Notre-Dame Est, Montreal, QC",45.5402,-73.5338,,,
Canada,Toronto,TORI,Seatainer Terminals,"7050 Major MacKenzie Drive West, Kleinburg, ON",43.8571,-79.6056,,
Canada,Vancouver,VAND,Coast 2000 Terminals Ltd.,"16080 Portside Road, Richmond, BC",49.1673,-123.066,,
Canada,Saskatoon,SASK,Sea Can Sam,"12 Peters Ave, Martensville, SK",52.3263,-106.6686,,
USA,Atlanta,ATLB,ConGlobal Industries,"465 Sawtell Ave., Atlanta, GA 30315",33.7009,-84.3795,,
USA,Baltimore,BALA,"Picorp, Inc. Baltimore","6508 East Lombard Street, Baltimore, MD 21224",39.2869,-76.5376,,
USA,Chicago,CHIB,ConGlobal Industries - Forestview,"6401 W. 46th Street, Forestview, IL 60402",41.8106,-87.7799,,
Bangladesh,Chittagong,CHTC,QNS Container Services Ltd,"Chittagong Export Processing Zone, South Halishahar",22.308,91.7922,,
China,Chongqing,CKGC,CIMC Wetrans Container Logistics,"Tuzhu Town, Shapingba District, Chongqing",29.6485,106.4324,,
USA,Chicago,CHIR,ConGlobal Industries - Joliet,"3201 Centerpoint Way Unit D, Joliet, IL 60436",41.5073,-88.1269,,
USA,Chicago,CHIS,Integrated Industries Corp.,"281 East 155th Street, Harvey, IL 60426",41.6092,-87.6462,,
USA,Chicago,CHISCH,Integrated Industries - Channahon,"27343 S. Frontage Road, Channahon, IL 60410",41.4373,-88.2206,,
India,Kochi,COKA,Bay Container Terminal Pvt.,"Near Kunammavu Junction, Varapuzha, Cochin 683517",10.0757,76.2827,,
Denmark,Copenhagen,CPHA,Container Care A/S,"Baltikavej, DK-2100 Copenhagen",55.7237,12.6091,,
South Africa,Cape Town,CPTJ,Durban Container Park-Cape Town,"Potsdam Road, Killarney Gardens, Cape Town 8000",-33.8229,18.5236,,
South Africa,Cape Town,CPTL,Silver Solutions Intermodal Depot,"30 Sacks Circle, Bellville South, Cape Town",-33.9437,18.6813,,
USA,Chicago,CHISCO,Integrated Industries Corp.,"14600 Lincoln Ave., Dixmoor, IL 60426",41.6277,-87.6522,,
China,Changzhou,CZXB,Zhenjiang New Area Huahang,"255, Zhujiang Road, Beilun Zone, Ningbo",29.9576,121.8825,,
USA,Chicago,CHIT,"Wheeler Trailers, Inc. (Yards Container)","4631 South Racine Avenue, Chicago, IL 60609",41.8102,-87.6557,,
USA,Charleston,CHSB,ConGlobal Industries,"1451 Bainbridge Connector Rd, North Charleston, SC 29405",32.859,-79.9877,,
USA,Cleveland,CLE02,ITS ConGlobal - 300 E.131st St.,"300 E. 131st Street, Cleveland, OH 44135",41.4417,-81.5782,,
France,Dunkerque,DKKA,CCIS France - Dunkerque,"Port Quest, Route de Maison Blanche, Loon Plage, Dunkirk",51.031,2.1911,,
China,Dalian,DLNA,Dalian Sinotrans Logistics,Dalian 116600,38.914,121.6147,,
China,Dalian,DLNC06,Dalian Singamas International Container,Dalian 116601,38.914,121.6147,,
Qatar,Doha,DOHB,Gulf Warehousing Company Shipping Services,"Logistics Village Qatar, Wadi Aba Saleel, Doha",25.1555,51.5197,,
India,Dadri,DRIB,Jay Container Services Co (P) Ltd.,"Surajpur By pass Indl. Area, Greater Noida, U.P 201306",28.5728,77.4916,,
Germany,Duisburg,DSBA,Duisburg Container Terminal Gm,"Alte Ruhrorter Strasse 20-22, 47119 Duisburg",51.4547,6.7577,,
Germany,Duisburg,DSBB,Rhenus Intermodal Systems NV,"Moerserstrasse 143, 47059 Duisburg",51.4413,6.7367,,
USA,Cleveland,CLEA,ITS Conglobal - 5155 Warner Road,"5155 Warner Road, Cleveland OH 44125",41.4203,-81.636,,
Ireland,Dublin,DUBF,Containexperts Limited,"Merrywell Industrial Estate, Ballymount Road Lower, Dublin 12",53.3131,-6.3436,,
South Africa,Durban,DURH,Bridge Port,"151 South Coast Road, Rossburgh, Durban 4094",-29.8946,30.995,,
South Africa,Durban,DURJ,Southway Freight (Pty) Ltd,"1A Airport Road, Prospecton, Durban 4133",-29.9637,30.9766,,
South Africa,Durban,DURN,Southway Freight (Pty) Ltd - Compound Road,"1 Compound Road, Seaview, Durban",-29.8929,30.9767,,
USA,Columbus,CMHA,ITS ConGlobal,"2400 Creekway Drive, Columbus OH 43207",39.9087,-82.9632,,
Mexico,Ensenada,ENSONE,Deposito de Contenedores Ensenada-CIMA Group,"Carretera libre Tecate-Ensenada, Km 103.5, El Sauzal de Rodriguez",31.9151,-116.764,,
Netherlands,Flushing,FLUA,Verbrugge Terminals B.V. (Zwennis),"Engelandweg 12, 4389 PC Ritthem (Vlissingen-Oost)",51.4546,3.6922,,
UK,Felixstowe,FLXA,Eldapoint Ltd.,"Sub-station Road, The Dock, Felixstowe IP11 8HG",51.9633,1.308,,
France,Fos Sur Mer,FOS03,Arnal Fos-sur-Mer,"Darse 2, Secteur 86, Port St. Louis, 13516 Fos Sur Mer",43.4399,4.9444,,
France,Fos Sur Mer,FOS06,Arnal Ventillon,"Zone Du Ventillon, 13270 Fos Sur Mer",43.4413,4.9281,,
France,Fos Sur Mer,FOSA,Trailer & Container Service - Fos Sur Mer,"Zone de Service Portuaire, Graveleau, 13270 Fos Sur Mer",43.4377,4.9252,,
Australia,Fremantle,FREA,Qube Logistics,"17 Rous Head Road, North Fremantle 6159",-32.037,115.7362,,
Brazil,Fortaleza,FTZC,TERMACO Terminais Maritimos,"Rua Ismael PorDeus, 70, Vicente Pinzon, Fortaleza 60182-712",-3.7184,-38.4823,,
China,Fuzhou,FUZA,Sinotrans Xiamen Greating-Fort,"76 Road East LuoXing, MaWei, Fuzhou 350015",26.0177,119.5346,,
Poland,Gdansk,GDNC,Ref-Con Service Sp.J. - Depot Gdansk,"70 Sucharskiego Str, 80-601 Gdansk",54.3807,18.6646,,
Poland,Gdynia,GDYB,Ref-Con Service - Core Depot,"Hutnicza 1, 81-061 Gdynia",54.5581,18.4654,,
Turkey,Gebze,GEBA,ARKAS LOGISTIC SA. - Gebze,"Tavsanli Köyü, Köyyeri Mevkii, Gebze / Kocaeli",40.8018,29.4306,,
Turkey,Gemlik,GEMA,Arkas Logistics Gemlik Depot,"Engurucuk Koyu, Gemlik, Bursa",40.4319,29.1593,,
United Kingdom,Glasgow,GLAC,Fraser Limited,"8-10 Hornock Road, Coatbridge ML5 2D",55.8714,-4.0352,,
Italy,Genoa,GOAB,Rail Hub Europe Spa,"Strada Savonesa 12/16, 15050 Tortona/Rivalta",44.8979,8.8808,,
Italy,Genoa,GOAD,Spinelli S.r.l. - Genova Cornigliano,"Via Lungomare Canepa, 16152 Genova Cornigliano",44.4327,8.8721,,
Italy,Genoa,GOAI,Derrick Service s.r.l.,"Via del Bovo, 15061 Arquata Scrivia",44.7143,8.8686,,
Italy,Genoa,GOAK,Spinelli S.r.l. - Vignole Borbera,"Via Martiri della Benedicta 97, 15060 Vignole Borbera",44.7198,8.8828,,
Sweden,Gothenburg,GOTA,Lundby Container Svc AB,"Synnerödsvägen 15, 418 78 Göteborg",57.7182,11.8514,,
Korea,Gwangyang,GWAA,Kukdong Total Logistics Service,"807, Doi-dong, Gwangyang City, Jeollanamdo",34.94,127.6957,,
Ecuador,Guayaquil,GYEE,Aretina S.A.,"Calle Pública, Solar 4, Manzana 68, Guayaquil",-2.1833,-79.8856,,
USA,Cincinnati,CVGA,ITS ConGlobal,"2700 E. Crescentville Road, West Chester OH 45069",39.3035,-84.4275,,
Germany,Hamburg,HAMA,HCCR,"Altenwerder Damm 22, 21129 Hamburg",53.5115,9.8925,,
Germany,Hamburg,HAMB,REMAIN GMBH,"Dradenauer Deichweg 1, 21129 Hamburg",53.5468,9.8839,,
Germany,Hamburg,HAMG,CMR Container Maintenance Rep.,"Witts Weide 9, 21107 Hamburg",53.4847,10.0265,,
Germany,Hamburg,HAMK,HCS Hamburger Container Service GmbH,"Neuhoefer Brueckenstrasse 43-51, 21107 Hamburg",53.4865,10.0114,,
Vietnam,Ho Chi Minh,HCM01,VIETNAM MARITIME DEVELOPMENT JOINT,"Giang Dien Industrial Zone, Phuoc Tan Ward, Bien Hoa City",10.934,106.8606,,
Vietnam,Ho Chi Minh,HCMF,Southern Logistics Corporation,"Song Than I/P, Di An District",10.9007,106.7559,,
Vietnam,Ho Chi Minh,HCMG,ECS Bien Hoa Container Depot,"Bien Hoa 1 Industrial Zone, Bien Hoa",10.9634,106.8377,,
Vietnam,Ho Chi Minh,HCMH,Greating Fortune Container HCM,"Thuan An Town, Binh Duong",10.98,106.677,,
Vietnam,Ho Chi Minh,HCMI,Nam Khanh (VIET NAM) Logistics Co. Ltd,"No.85, 1A Highway, Long Binh Tan Ward, Bien Hoa",10.9276,106.8462,,
Vietnam,Ho Chi Minh,HCMJ,CIMC Logistics (Vietnam) Co. Ltd,"Street No.11, Bien Hoa 1 Industrial, Bien Hoa 76100",10.9634,106.8377,,
Finland,Helsinki,HELA,Helsingin Konttikeskus Oy,"Vuosaari Harbour, Satamakaari 27, SF-00980 Helsinki",60.2111,25.1835,,
Finland,Helsinki,HELF,Container-Depot Ltd Oy,"West Harbour Road, Port of Vuosaari, FI-00980 Helsinki",60.2111,25.1835,,
China,Hong Kong,HKGU,Container System Ltd.,"DD 124 Lot 233, Ping Ha Road, Lau Fau Shan, Yuen Long, N.T.",22.4738,113.9937,,
China,Hong Kong,HKGV,MD Int'l Container Services Ltd.,"River Trade Terminal, 201 Lung Mun Road, Tuen Mun",22.3712,113.9633,,
Japan,Hakata,HKTA,GENEQ Corporation,"IC Container Terminal No.3 VP, 1-chome Minatokashii, Fukuoka 813-0019",33.6526,130.41,,
Japan,Hakata,HKTC,Mitsubishi Logistics Corporation,"1-1, Minato Kashii, Higashi-ku, Fukuoka-shi 813-0018",33.6526,130.41,,
Sweden,Helsingborg,HLS04,Conteam Repair AB,"Naftagatan 12, S-25225 Helsingborg",56.0478,12.726,,
New Zealand,Hamilton,HLZC,"Hamilton Container Park, Container Co","7 Kohai Drive, Horotiu, Hamilton 3288",-37.7037,175.2167,,
USA,Dallas,DAL02,TSL Terminals,"1141 EAST FULGHUM ROAD, HUTCHINS, TX 75141",32.6189,-96.7017,,
USA,Dallas,DALH,ITS ConGlobal,"19560 FM156 South, Haslet TX 76052",32.9915,-97.3574,,
USA,Denver,DEN01,Complete Container Services,"6515 Delaware, Denver CO 80221",39.8126,-105.0113,,
USA,Detroit,DTTD,ITS ConGlobal,"8501 W. Fort Street, Detroit MI 48209",42.2945,-83.1342,,
USA,Houston,HOU35,Stolt-Nielsen USA Inc.,"16300 De Zavalla Road, Channelview TX 77530-4667",29.7986,-95.0907,,
USA,Houston,HOUA,ConGlobal Industries - Galena Park,"500 Mayo Shell Road, Galena Park TX 77547",29.7323,-95.2302,,
USA,Houston,HOUB,ConGlobal Industries - La Porte,"1802 Hwy 146 N., La Porte TX 77572",29.6867,-95.0195,,
Vietnam,Haiphong,HPHC,ECS Hai Phong Container Depot,"Dinh Vu Industrial Zone, Dong Hai 2 Ward, Hai An District, Haiphong",20.8664,106.7242,,
Vietnam,Haiphong,HPHD,Greating Fortune Vietnam Container JointStock,"Dinh Vu Road, Dong Hai Ward, HaiPhong City",20.8664,106.7242,,
Vietnam,Haiphong,HPHE,Vietnam Maritime Development,"242 Chua Ve Street, 308 Ngo Quyen Street, Hai Phong",20.8528,106.6983,,
China,Huangpu,HPUB,Container System (Shenzhen),"Shi Hua North Road 1301, Huangpu, Guangzhou",23.1127,113.4608,,
China,Huangpu,HPUC,"Guangzhou CIMC Container Service Co., Ltd.","No.84 Funan Road, Huangpu District, Guangzhou",23.1106,113.4612,,
China,Huangpu,HPUN06,GREATING FORTUNE (GUANGZHOU) CONTAINER,"Donghe Road, Huangpu, Guangzhou",23.1127,113.4608,,
Korea,Incheon,INCE,"SeungJin Enterprise Co., Ltd.","593, Songdo-dong, Yeonsu-gu, Incheon",37.3846,126.6423,,
Korea,Incheon,INCF,"DongWoo Logis Co., Ltd.","82-1, Hang-dong 7ga, Jung-gu, Incheon",37.4744,126.6218,,
United States,Houston,HOUN,LarSon Intermodal,"17007 Crosby Freeway, Houston TX 77049",29.8642,-95.1585,,
Chile,Iquique,IQQA,Delmar Containers S.A.,"AV. Circunvalacion N° 600, Iquique",-20.2537,-70.1272,,
Chile,Iquique,IQQST,Sitrans Iquique,"Av. Jorge Barra S/N Sitio 14, Iquique",-20.2366,-70.1367,,
Turkey,Istanbul,ISTA,Arkas Logistics SA,"Indere Mevkii, Yesilbayir Koyu Yolu, Hadimkoy, 34867 Istanbul",41.118,28.6272,,
Brazil,Itajai,ITJD,Oceanic Logística Reprotuára,"Avenida Gov. Adolfo Konder 2500, Itajai, SC",-26.9272,-48.6606,,
Turkey,Izmir,IZMA,Arkas Logistics SA,"Mehmet Akif Ersoy Mah., Oteyaka II.Kume No: 53, Sutculer, Izmir",38.4681,27.2167,,
Turkey,Izmit,IZTA,ARKAS LOGISTIC SA. - Izmit - Korfez,"Güney Mah. Kent Cad. Cumhuriyet Bulvar?, Sumbul Sok. No: 18, Körfez",40.7667,29.7667,,
United States,Houston,HOURID,Integrated Industries Corp.,"7226 North Loop East, Houston TX 77028",29.8046,-95.2901,,
Indonesia,Jakarta,JKTA,P.T. Setia Putra Sejati,"JL Raya Cakung Cilincing No.22, Jakarta - Utara 10130",-6.1343,106.9319,,
Indonesia,Jakarta,JKTA11,PT Multi Bina Pura International,"JL Raya Cakung Cilincing KM 4, Utara, Jakarta 14260",-6.1531,106.9617,,
Indonesia,Jakarta,JKTB,P.T. Segara Pacific Maju,"JL Raya Cakung, Cilincing CK59, Jakarta 14130",-6.1523,106.9542,,
Indonesia,Jakarta,JKTGF,PT GFC INDONESIA TERMINAL (JAKARTA),"JI. Cakung Industri Selatan No.12, Cakung Cilincing, Jakarta 14140",-6.1748,106.9747,,
Indonesia,Jakarta,JKTH,PT. TUNGYA COLLINS TERMINAL,"JL Cakung Industri Selatan I No 12, Cakung Cilincing, Jakarta 14140",-6.1748,106.9747,,
Indonesia,Jakarta,JKTQ,PT Quad Kontena Logistics,"Jl. Gresik Blok C No1, KBN Marunda, Jakarta Utara, Jakarta 14150",-6.085,106.9441,,
South Africa,Johannesburg,JNBD,Southway Container Services Pty Ltd.,"587 Lower Main Reef Road - Cleveland, Johannesburg 2197",-26.2209,28.0996,,
South Africa,Johannesburg,JNBF,Logistix SA,"James Bright Avenue, Driehoek, Germiston, Johannesburg",-26.2156,28.1806,,
Malaysia,Pasir Gudang,JOHD,Eng Kong Container,"PLO 704, Jalan Keluli, Pasir Gudang Industrial Area, Johor",1.4514,103.9047,,
Malaysia,Pasir Gudang,JOHE,ICS Depot Services Sdn. Bhd.,"Plo 699 Jalan Keluli 8, Pasir Gudang, Johor",1.4549,103.903,,
Malaysia,Pasir Gudang,JOHF,SL Container Terminal - Functional Depot,"PLO 523, Jalan Keluli 3, Kawasan Perindustrian Pasir Gudang, Johor",1.4547,103.902,,
Malaysia,Pasir Gudang,JOHG,Wintop Container Sdn Bhd,"Lot PTD 222127, Jalan Nikel 3, Kawasan Perindustrian, Johor",1.4539,103.9005,,
Taiwan,Kaohsiung,KAO01,Tungya Transportation & Terminal - Kaohsiung,"NO.21, Tung Ya Road, Chlen Cheing Dist., Kaohsiung",22.6007,120.3152,,
Taiwan,Kaohsiung,KAOB,"Yu Fung Cntr Ent. Co., Ltd.","No. 389-1, Zhongmen Road, Linyuan District, Kaohsiung",22.5032,120.3885,,
Taiwan,Kaohsiung,KAOD,"Tai Yunnn Enterprise Co., Ltd.","1-1 Chi Chin 1st Rd, Chi Chin Chu, Kaohsiung",22.6138,120.2697,,
USA,Houston,HOUT,Global Container Industries,"7015 FM1942, Baytown TX 77521",29.8197,-94.9958,,
USA,Houston,HOUV,"Cotac USA, Inc.","9938 Chemical Road, Pasadena TX 77507",29.6315,-95.1707,,
USA,Indianapolis,INDA,ITS ConGlobal,"1420 W Troy Ave., Indianapolis IN 46221",39.7214,-86.1875,,
Taiwan,Keelung,KEE01,Tungya Transportation & Terminal - Keelung,"No.43-1, Wuxun St., Anle District, Keelung City 204",25.1376,121.7133,,
Pakistan,Karachi,KHIC,Cargo Support Services (Pvt),"TPX Yard (Plot No. D-4), Old Queens Road, Opp Behria Complex, Karachi",24.8506,67.0262,,
Japan,Kobe,KOBB,Furuya & Co.,"Port Island PC-14 Terminal 3-Banchi, 9-Chome, Minatojima, Kobe",34.6654,135.2251,,
Japan,Kobe,KOBC,"Kamigumi Co., Ltd.","PC-18 (West Gate), 8-14 Minatojima, Chuo-Ku, Kobe",34.6693,135.2271,,
Japan,Kobe,KOBD,"The Sumitomo Warehouse Co., Ltd.","KICT (Kobe International Container Terminal), 9-10, Minatojima, Kobe",34.6717,135.2247,,
Finland,Kotka,KTKA,Container-Depot Ltd Oy,"Merituulentie 424, Mussalo Container Terminal, Kotka",60.4268,26.8985,,
USA,Jacksonville,JAXA,ConGlobal Industries,"8831 Moncrief-Dinsmore Rd., Jacksonville FL 32219",30.4391,-81.7506,,
USA,Kansas City,KCTD,"TSL Terminals, Inc.","1157 South 12th Street, Kansas City KS 66105",39.085,-94.6269,,
Thailand,Laem Chabang,LCHB,Thai Eng Kong Container,"549/32 Moo 1, Tumbol Nongkham, Amphur Sriracha, Chonburi 20230",13.0754,100.956,,
Thailand,Laem Chabang,LCHC,Fortress Laem Chabang Co.,"99/8 Moo 3, Tumbon Bueng, Ampur Siracha, Chonburi 20230",13.0854,100.9737,,
Thailand,Laem Chabang,LCHE,"Reefer International CA., Ltd.","207/1 Moo9, Surasak, Sriracha 20110",13.1216,100.9569,,
Thailand,Laem Chabang,LCHF,"Srithai Freight Forwarder Co., Ltd.","719/3 Moo 1 Nongkham Siriracha, Chonburi 20280",13.1028,100.9511,,
Thailand,Laem Chabang,LCHG,Greating Fortune Container Service (Thailand),"23/67 Moo 5 T.Thungsukha Sriracha, Chonburi 20230",13.0798,100.9897,,
UK,Leeds,LDSD,Northern Containers Ltd.,"Haigh Road, Stourton, Leeds LS10 1RT",53.7718,-1.5087,,
Italy,Livorno,LEGC,Spinelli S.r.l.,"1 Via Jacoponi Vasco Natale, Livorno 57123",43.5567,10.3217,,
Italy,Livorno,LEGD,Auta Marocchi S.p.A.,"Via delle Colline 100, 57014 Guasticce (LI)",43.5887,10.392,,
Italy,Livorno,LEGE,Co.re.mas Polaris Italia Srl,"Via delle Colline 100, 57014 Guasticce (LI)",43.5887,10.392,,
France,Le Havre,LEH14,CCIS France - Le Havre,"Route Des Enterprises, 76700 Gonfreville l'Orcher, Le Havre",49.5048,0.1914,,
France,Le Havre,LEHC,Trailer & Container Service In - ZI Portuaire,"Parc des Alizes II, 76430 ZI Portuaire, Le Havre",49.4847,0.1386,,
France,Le Havre,LEHD,Arnal Le Havre,"Route de la plaine, 76700 Gonfreville L'Orcher, Le Havre",49.5133,0.2076,,
France,Le Havre,LEHE,Trailer & Container Service - Le Havre,"Quai de Garonne, Chaussee des Gares Maritimes, 76600 Le Havre",49.4937,0.1249,,
Portugal,Leixoes,LEXC,ALCONT,"Rua de Agra Nova, Vila do Conde 4485-040",41.3349,-8.7336,,
Portugal,Leixoes,LEXD,TRANSPORTES SARDA0 S.A.,"Alameda Infanta Mafalda, 118, 4455-852 Santa Cruz do Bispo, Matosinhos",41.1996,-8.7018,,
Costa Rica,Limon,LIOA,Universal Servicios a Contendo,"Zona Franca, Parque Industrial, Puerto Limon",9.9907,-83.0352,,
Costa Rica,Limon,LIOC,"Atlantic Container Terminals, S.A.","In front RTV Campus, road 32, Liverpool-Puerto Limón",10,-83.0333,,
Costa Rica,Limon,LIOD,"Ticontainers, S.A.","Ruta 32, Rio Madre, 500 mts de Riteve, sentido Limon - San Jose",10.01,-83.03,,
Costa Rica,Limon,LIOE,Transportes Grant S.A.,"Liverpool, Puente Rio Blanco 1Km Este, Rute 32, Curridabat, Limon",10.0087,-83.0228,,
Portugal,Lisbon,LISE,Alcont Santa Iria,"Lugar Marinhas D. Pedro, Santa Iria da Azoia 2690-361",38.8581,-9.0897,,
UK,London,LONG,Bullman Marine Supplies & Containers Ltd,"84 River Road, Barking, Essex IG11 0DS",51.5273,0.1021,,
UK,Liverpool,LPLA,Eldapoint Ltd.,"Charleywood Road, Kirkby Industrial Estate, Merseyside L33 7SG",53.4812,-2.888,,
UK,Liverpool,LPLD,Containercare Ltd.,"Progress House, Dock Road, Garston, Liverpool L19 2JR",53.3497,-2.9,,
Italy,La Spezia,LSPA,CONTREPAIR SRL (NORA Division),"Strada Comunale di Bolano, 20, Santo Stefano di Magra, 19037 La Spezia",44.1669,9.9002,,
Italy,La Spezia,LSPB,Terminal Rebora La Spezia,"Via di Bolano, Loc Posticci, 19037 S. Stefano Magra",44.1712,9.8992,,
Germany,Ludwigshafen,LUDA,Contargo Rhein-Neckar GmbH,"Shellstrasse 5, 67065 Ludwigshafen",49.4668,8.4216,,
USA,Kansas City,KCTE,"Select Fleet Transportation, Inc.","3030 Pioneer Road, Grandview MO 64030",38.9004,-94.5442,,
China,Lianyungang,LYGC,Sinotrans Landbridge Transport,"No. 8 Huanghai Road, Lianyungang 222042, Jiangsu",34.7338,119.458,,
France,Lyon,LYSB,Trailer & Container Service,"Rue du Lyonnais, F-69800 Saint Priest",45.7062,4.9317,,
France,Lyon,LYSO02,Arnal Lyon,"11 Rue Jean Bouin, Port Edouard Herriot, 69007 Lyon",45.7282,4.8396,,
India,Chennai,MAAA,Bay Container Terminal Pvt.,"No.16, Vichoor Main Road, Kulakkarai, Chennai 600103",13.2112,80.2765,,
India,Chennai,MAAD03,Madras Container Terminal,"3/193A - Kadappakkam Village, Ponneri High Road, Chennai 600103",13.2657,80.267,,
Brazil,Manaus,MAOA,SUPER TERMINAIS COMERCIO,"Av Abiurana nr1474, Distrito Industrial, Manaus 69075-010",-3.1212,-60.013,,
Australia,Melbourne,MEL17,SCF Group Pty Ltd,"215 Sunshine Road, Tottenham, VIC, 3012",-37.7998,144.8703,,
Australia,Melbourne,MEL18,HYDE PARK TANK DEPOT,"49-53 McArthurs Road, Altona North VIC 3025",-37.8287,144.8512,,
Australia,Melbourne,MELG,Victorian Container Management,"141-159 Dohertys Road, Altona North Vic. 3025",-37.8331,144.8169,,
Australia,Melbourne,MELK,Melbourne Container Park,"265–281 Sunshine Road, Tottenham Victoria 3012",-37.7995,144.8587,,
Australia,Melbourne,MELM,Qube Hire And Sales Depot,"172-184 Dynon Road, West Melbourne VIC 3003",-37.8125,144.9272,,
Australia,Melbourne,MELN,ACFS Port Logistics PTY LTD,"24 Kooringa Way, Port Melbourne VIC 3207",-37.8326,144.9171,,
USA,Kansas City,KCTF,TSL Gardner,"3803 Gardner Ave, Kansas City MO 64120",39.1312,-94.5133,,
Turkey,Mersin,MERA,Arkas Logistics SA,"Cilek Mahallesi, 6349 Sokak, No: 21, 33300 Mersin",36.799,34.6576,,
Mexico,Mexico City,MEX01,Conglobal Industries,"Calle Carretera Federal Jorobas Tula, Atotonilco De Tula, Hidalgo",20.032,-99.2227,,
USA,Los Angeles,LAXA,ConGlobal Industries - 1600 E. Lomita Blvd.,"1600 E. Lomita Blvd., Wilmington CA 90744",33.792,-118.2493,,
USA,Los Angeles,LAXB,ConGlobal Industries - 1304 E. Lomita Blvd.,"1304 E. Lomita Blvd., Wilmington CA 90744",33.7922,-118.2542,,
USA,Louisville,LVLB,ITS ConGlobal,"1803 South Park Road, Louisville KY 40219",38.1872,-85.7596,,
Italy,Milan,MILA,Spinelli S.r.l.,"Via Don Luigi Sturzo 13, Arluno, 20010 Milano",45.489,8.946,,
Italy,Milan,MILH,Coremas Polaris Italia SRL,"Via Sant'Elia, 31/33, 20066 Melzo (Milano)",45.4966,9.4205,,
Italy,Modena,MODC,Terminal Spinelli srl,"P/O Scalo FS A.C.T., 42013 Dinazzano di Casalgrande",44.591,10.7035,,
Japan,Moji,MOJA,GENEQ Corporation,"11-3 Tachinourakaigan, Moji-ku, Kitakyushu City, 801-0805",33.9441,130.942,,
Kenya,Mombasa,MOMC,Gateway Marine Services Limited,"Makupa Causeway, Kibarani Flyover, Mombasa",-4.0401,39.6411,,
USA,Memphis,MEMG,ConGlobal Industries,"642 East Brooks Road, Memphis TN 38109",35.0698,-90.0503,,
USA,Miami,MIAD,Miami Container Repair Co.,"9801 N.W. 106th Street, Medley FL 33178",25.8676,-80.3556,,
France,Marseille,MRS02,Arnal Marseille,"Chemin de Bizet, Les Tuileries, 13016 Marseille",43.3667,5.3167,,
France,Marseille,MRS03,CCIS France - Marseille,"Zi ACTISUD, 90 Chemin du ruisseau Mirabeau, 13015 Marseille",43.3535,5.345,,
France,Marseille,MRSA,Trailer & Container Service,"Chemin de Bizet, F-13016 Marseille",43.3667,5.3167,,
USA,Miami,MIAH,"Gold Coast Repairs, Inc.","13850 N.W. 105th Avenue, Hialeah FL 33018",25.8906,-80.3707,,
USA,Miami,MIAJ,"Maritime Container Services, Inc.","10400 N.W. 95th Avenue, Medley FL 33178",25.8659,-80.3522,,
Germany,Munich,MUCA,Container Depot Muenchen,"Wilhelm-Kemmelmeyer-Bogen 26, 85774 Unterföhring",48.197,11.6472,,
Germany,Munich,MUCB,Kloiber GmbH,"Hofbraeuallee, 81829 Muenchen",48.1298,11.6522,,
India,Mundra,MUNA,Bay Container Terminal Pvt.,"Survey No. 46/2, Kubo Vadi Borana Road, Nana Kapaya, Mundra Kutch",22.8397,69.7219,,
India,Mundra,MUNB,Container Solutions (India) Private Limited,"Zarapara Road, Ambaji Warehouse Park, Mundra, Kutchch",22.8393,69.7108,,
China,Nanjing,NAJA,NanJing Port Longtan Container,"No. 1-2 Longtan Logistics Park, Nanjing 210058, Jiang Su",32.1667,118.8833,,
China,Nantong,NANB,Ningbo CIMC Container Services,"No. 255, Zhujiang Road, Beilun Zone, Ningbo 315800",29.9345,121.8825,,
Italy,Naples,NAPC,Terminal Miele Leasing Co.,"Via Nouva delle Brecce 151, 80040 Napoli",40.8675,14.2947,,
Italy,Naples,NAPD,E.C.F. Trasporti Tedeschi srl,"Via Bartolo Longo 296, 80147 Napoli",40.872,14.2953,,
China,Ningbo,NBOB,"Ningbo Victory Container Co., Ltd.","Ningbo, Zhejiang, China",29.8683,121.544,,
China,Ningbo,NBOF,CIMC Wetrans Container Logistics (Ningbo),"Ningbo 315800, Zhejiang, China",29.8683,121.544,,
China,Ningbo,NBOG,Greating Fortune (Ningbo),"Ningbo, Zhejiang, China",29.8683,121.544,,
China,Ningbo,NBOH,"Ningbo Sanlly Container Services Co., Ltd.","Ningbo 315800, Zhejiang, China",29.8683,121.544,,
China,Ningbo,NBOI,"Ningbo Skylark Container Co., Ltd.","Ningbo 315800, Zhejiang, China",29.8683,121.544,,
China,Ningbo,NBOJ,"CML (Ningbo) Logistics Co., Ltd.","Ningbo 315800, Zhejiang, China",29.8683,121.544,,
China,Ningbo,NBOK,"Ningbo Zhaohua Wanda Logistics Co., Ltd","Ningbo 315800, Zhejiang, China",29.8683,121.544,,
China,Ningbo,NBOL,"Zhejiang Portex Logistics Technology Co., Ltd","Ningbo 315800, Zhejiang, China",29.8683,121.544,,
China,Ningbo,NBOM,Ningbo Free Trade Zone Xingao Logistics Co.,"Ningbo 315800, Zhejiang, China",29.8683,121.544,,
China,Ningbo,NBON,"Ningbo Deshang ColdChain Technology Co.,Ltd","Ningbo 315800, Zhejiang, China",29.8683,121.544,,
China,Ningbo,NBOO,Zhejiang Yuanxin Supply Chain Co.Ltd,"Ningbo 315000, Zhejiang, China",29.8683,121.544,,
India,New Delhi,NDLA,Bay Container Terminal Pvt.,"Delhi-Mathura Road Highway, Faridabad, New Delhi 110048",28.4089,77.3178,,
India,New Delhi,NDLL03,Jay Container Services Co (P) Ltd.,"Greater Noida, Gautam Budh Nagar, Uttar Pradesh 201306",28.4744,77.504,,
Japan,Nagoya,NGOA,"Tokai Kyowa Co., Ltd.","Nishihama 30-7, Tobishima-mura, Aichi, Nagoya 490-1447",35.0505,136.788,,
Japan,Nagoya,NGOB,"Kamigumi Co., Ltd.","Nishihama 27-2, Tobishima-mura, Aichi, Nagoya",35.0505,136.788,,
Japan,Nagoya,NGOD,"Meiko Trans Co., Ltd.","Tomihama 2-chome, Yatomi City, Aichi, Nagoya 455-8650",35.1081,136.7216,,
USA,Minneapolis,MSPA,Universal Intermodal Services,"630 30th Avenue N.E., Minneapolis MN 55418",45.0192,-93.2423,,
USA,Minneapolis,MSPD,TKI Intermodal,"123 27th Ave. NE, Minneapolis MN 55418",45.0135,-93.254,,
USA,Norfolk,NOFB,ConGlobal Industries,"806 Meads Ct, Chesapeake VA 23323",36.8026,-76.3532,,
USA,Norfolk,NOFD,Marine Repair Services,"3004 Yadkin Road, Chesapeake VA 23323",36.8037,-76.3534,,
USA,New Orleans,NORA,ConGlobal Industries,"10090 Almonaster Ave., New Orleans LA 70127",30.0244,-89.9532,,
USA,New Orleans,NORC,C&C Maintenance Holdings LLC (Integrated),"3501 France Road, New Orleans LA 70126",30.0209,-90.0197,,
USA,New York,NYCF,Integrated Industries Corp. - Woodbridge,"1 Pennval Road, Woodbridge NJ 07095",40.5576,-74.2726,,
Ireland,Cork,ORKA,Container Storage and Repair,"Tivoli Container Terminal, Cork",51.9078,-8.4013,,
Japan,Osaka,OSAA,Konoike Transportation Co. Ltd,"5-1 Nanko-Higashi, Suminoe-Ku, Osaka 559-0031",34.634,135.4157,,
Japan,Osaka,OSAB,Sankyu Inc.,"Nanko C7, 3-125, 7-Chome Nanko-Naka, Suminoe-Ku, Osaka",34.6351,135.4167,,
Italy,Padova,PDVA,Interporto Padova S.p.A.,"Corso Spagna 14/D, 35127 Padova",45.4064,11.8768,,
Mexico,Progreso,PGOONE,Deposito CIMA Group,"Carretera Merida progreso km. 22, Progreso Yucatan 97320",21.282,-89.6622,,
Malaysia,Port Klang,PKLD,New Eng Kong Container,"Lot A23, Jalan Tun Perak 3, Perdana Industrial Park, 42000 Port Klang",3.0081,101.3903,,
Malaysia,Port Klang,PKLE,ICS Depot Services Sdn. Bhd.,"Lot No. 4-A, Lingkaran Sultan Mohamed 2, 42000 Port Klang",3.0027,101.3945,,
Malaysia,Port Klang,PKLF,Container Connections (M) Sdn,"Lot 18, Lebuh Sultan Mohamed 1, 41200 Port Klang",3.0022,101.3915,,
Malaysia,Port Klang,PKLGF,Greating Fortune (M) Logistics Sdn Bhd,"PT 65617, Persiaran Sultan Alauddin/KU17, 42000 Port Klang",3.0091,101.401,,
Malaysia,Port Klang,PKLH,SH Cogent Logistics Sdn Bhd,"No.25, Lorong Sultan Mohamed 25E, 42000 Pelabuhan Klang",3.0083,101.3892,,
Malaysia,Penang,PNGC,Eng Kong Container Services,"Lot 1332, Mukim 14, Jalan Banang Lallang, 13400 Butterworth",5.3993,100.3746,,
Malaysia,Penang,PNGE,ICS Depot Services Sdn. Bhd.,"No. 2443, Lorong Perusahaan Satu, 13600 Prai, Penang",5.381,100.3976,,
Malaysia,Penang,PNGG,Mutual Space Sdn Bhd,"Lot 2877, Lorong Kaw Perusahaan Sungai, Lokan 5, 13000 Butterworth",5.3938,100.3772,,
USA,New York,NYCI,Integrated Industries Corp. - Old Bridge,"3237 Cheesequake Road, Old Bridge NJ 08857",40.4355,-74.2964,,
Brazil,Paranagua,PRGA,Transatlantica Containers,"BR 277, Km 2.5, Porto de Paranagua, Parana 83203-260",-25.5167,-48.5167,,
China,Qingdao,QGDA,Qingdao GangLianJie Int'l,"Qingdao 266500, Shandong, China",36.0671,120.3826,,
China,Qingdao,QGDC,Sinotrans Container Lines,"Qingdao, China",36.0671,120.3826,,
China,Qingdao,QGDH,Qingdao Ocean & Great Asia,"Qingdao 266500, Shandong, China",36.0671,120.3826,,
China,Qingdao,QGDK,Qingdao Singamas International Logistics,"Qingdao 266500, Shandong, China",36.0671,120.3826,,
China,Qingdao,QGDL,"Qingdao MinJun Logistics Co., Ltd.","Qingdao 266513, Shandong, China",36.0671,120.3826,,
China,Qingdao,QGDM,"Qingdao KaiBiao Logistics Co.,Ltd","Qingdao 266555, Shandong, China",36.0671,120.3826,,
China,Qinzhou,QZHA,ShenZhen Greating Fortune Automatization,"Fengtong Industrial Zone, Qinzhou, Guangxi, China",21.9782,108.6548,,
Finland,Rauma,RAUB,Depot Service Rauma OY,"Hakunintie 28, 26100 Rauma, Finland",61.1197,21.4853,,
Brazil,Rio Grande,RGRA,Cranston Transportes,"Via 1 - Lotes 2/3, Distrito Industrial, Rio Grande, Brazil",-32.0453,-52.1046,,
Brazil,Rio Grande,RGRB,Mercotainer Terminal De Container Ltda,"Rua Prof. G. E. Dawson 250, Rio Grande, Brazil",-32.0357,-52.1316,,
Brazil,Rio De Janeiro,RIOG,KLOG Transportes Ltda,"Rua Carlos Seidl 398, Caju, Rio de Janeiro, Brazil",-22.8748,-43.2219,,
France,Rouen,ROUA,Arnal Rouen,"Boulevard du Grand Aulnay, 76530 Grand Couronne, Rouen",49.3674,1.0248,,
Netherlands,Rotterdam,RTMA,UWT Bunschotenweg (Zwennis),"Bunschotenweg 124, 3089 KC Rotterdam, Netherlands",51.8833,4.4295,,
Netherlands,Rotterdam,RTMC,Kramer depot RTW2 (Zwennis),"Magallanesstraat 25, 3199 LP Rotterdam, Netherlands",51.9527,4.0987,,
Netherlands,Rotterdam,RTMK,Waalhaven Botlek Terminal (WBT) Zwennis,"Nieuwesluisweg 268, 3197 KV Rotterdam, Netherlands",51.879,4.2705,,
Netherlands,Rotterdam,RTML,Cetem Containers B.V.,"Westgeulstraat 6, 3197 LD Rotterdam, Netherlands",51.872,4.2719,,
Netherlands,Rotterdam,RTMLR,RSC c/o Cetem,"Reeweg 35, 3089 KM Rotterdam, Netherlands",51.8891,4.4091,,
Netherlands,Rotterdam,RTMN,Holland Reefer Service B.V.,"Theemsweg 48, 3197 KM Rotterdam, Netherlands",51.8837,4.2725,,
Netherlands,Rotterdam,RTMS,Kramer Home-depot (Zwennis),"Reeweg 25, 3089 KM Rotterdam, Netherlands",51.889,4.4085,,
Netherlands,Rotterdam,RTMT,Kramer Distripark Depot (Zwennis),"Malakkastraat 51, 3199 LK Rotterdam, Netherlands",51.95,4.0996,,
Netherlands,Rotterdam,RTMT32,Cotac Nederland BV,"Oude Maasweg 44-50, 3197 ZH Rotterdam, Netherlands",51.8602,4.335,,
Chile,San Antonio,SAIA,AGUNSA SAN ANTONIO,"Av. La Playa S/N, Llo-Lleo, San Antonio, Chile",-33.5997,-71.6125,,
Chile,San Antonio,SAIB,Depositos y Contenedores S.A.,"Ruta G 86 3559, Barrio Industrial, San Antonio, Chile",-33.5997,-71.6125,,
Chile,San Antonio,SAIST,Sitrans San Antonio,"O’Higgins 2767, Barrancas, San Antonio, Chile",-33.5871,-71.6136,,
Brazil,Santos,SANF,HIPERCON Terminais de Cargas L,"Rua Boris Kauffmann 218, Santos, Sao Paulo, Brazil",-23.9601,-46.3336,,
Brazil,Santos,SANG,DepotCe - Deposito de Tank,"Av. Plinio de Queroz, Cubatao, Santos, Brazil",-23.8947,-46.4083,,
Brazil,Santos,SANH,Delta Terminais De Containers,"Rod. Padre Manoel Da Nobrega, Praia Grande, Brazil",-24.0048,-46.4102,,
Brazil,Salvador,SARD,Wilport Operadores,"Rodovia BR 324 Km 7/8, Piraja, Salvador, Bahia, Brazil",-12.9239,-38.4599,,
USA,New York,NYCJ,"C&C Maintenance, LLC (Integrated)","88 Marsh Street, Newark NJ 07114, USA",40.7106,-74.1846,,
USA,Portland,POTA,ConGlobal Industries,"9639 N Rivergate Blvd, Portland OR 97203, USA",45.6267,-122.7555,,
USA,Savannah,SAVD,ConGlobal Industries - Port Wentworth,"321 Grange Rd, Port Wentworth GA 31407, USA",32.1756,-81.1682,,
Chile,Santiago,SCLC,AGENCIA UNIVERSALES S.A.,"Av. Del Ferrocarril S/N, Valle Grande Lampa, Santiago, Chile",-33.3631,-70.7366,,
Chile,Santiago,SCLD,Depositos y Contenedores S.A.,"Ruta 68 KM 10, Pudahuel, Santiago, Chile",-33.4381,-70.7667,,
Chile,Santiago,SCLST,Sitrans Santiago,"Jorge Alessandri Rodriguez 10700, Lo Chen, Santiago, Chile",-33.5406,-70.6973,,
USA,Savannah,SAVE,"C&C Maintenance, LLC (Integrated)","487 Bourne Ave, Garden City GA 31408, USA",32.1345,-81.1527,,
Korea,Seoul,SEL01,Railroad Container Services,"Uiwang City, Kyung Gi Do, Seoul, Korea",37.3614,126.9355,,
USA,Savannah,SAVF,ConGlobal Industries - Garden City,"124 Prosperity Dr, Garden City GA 31408, USA",32.1347,-81.1529,,
USA,Seattle,SEAA,ConGlobal Industries,"4601 Diagonal Ave S, Seattle WA 98124, USA",47.557,-122.3284,,
China,Shanghai,SHAA,SIPG & Sinotrans Container,"Shanghai, China",31.2304,121.4737,,
China,Shanghai,SHABA,"Shanghai HuaYu Logistics Co., LTD","Shanghai, China",31.2304,121.4737,,
China,Shanghai,SHACA,"Sanlly Container Services Co., Ltd. Shanghai","Shanghai 201901, China",31.2304,121.4737,,
China,Shanghai,SHADA,Shanghai Liangkun Logistics Co. Ltd.,"Shanghai 200137, China",31.2304,121.4737,,
China,Shanghai,SHAEA,Shanghai Jiawang International Container,"Shanghai 201201, China",31.2304,121.4737,,
China,Shanghai,SHAFA,"Shanghai Zidong Int'l Logistics Co., Ltd.","Shanghai 200131, China",31.2304,121.4737,,
China,Shanghai,SHAHA,Shanghai Cinthang Mountains Service Limited,"Shanghai, China",31.2304,121.4737,,
China,Shanghai,SHAIA,"Shanghai ChunYu Container Service Co., Ltd.","Shanghai 201999, China",31.2304,121.4737,,
China,Shanghai,SHAJ,CIMC Wetrans Logistics Service (Shanghai),"Shanghai, China",31.2304,121.4737,,
China,Shanghai,SHAKA,Shanghai PJT Logistics Info Tech,"No.655 Tong Shun Ave, Pudong, Shanghai 201306, China",31.1739,121.5917,,
China,Shanghai,SHALA,Shanghai Huasing Int'l Container Freight,"Shanghai 200940, China",31.2304,121.4737,,
China,Shanghai,SHAMA,New-Far (Shanghai) Global Development,"No.168 Meisheng Rd, Pudong, Shanghai 200131, China",31.2201,121.5543,,
China,Shanghai,SHAS,Greating Fortune (Shanghai),"Shanghai 201207, China",31.2304,121.4737,,
China,Shanghai,SHATA,Shanghai Stolt Container Terminal,"No: 288 Liang Le Rd, Lao Gang Industry, Nanhui, Shanghai",30.8596,121.7993,,
China,Shanghai,SHAY,"Shanghai Yifa Container Service Co.,Ltd.","Shanghai 200137, China",31.2304,121.4737,,
China,Shekou,SHE06,Shenzhen Ganghang Container Service,"Qianhai FTZ, Nanshan District, Shenzhen, China",22.5362,113.9276,,
China,Shekou,SHEB,Shenzhen Cntr System Co. Ltd.,"TingHai Ave, Nanshan, Shenzhen 518067, China",22.4922,113.902,,
China,Shekou,SHED1,HK Sumputous Int'l Ltd. - Da Chan Bay,"Da Chan Bay, Bao’an, Shenzhen 518102, China",22.5397,113.8656,,
China,Shekou,SHED2,Shenzhen Sail Stars Containers Co. Ltd.,"Jingang Ave, Xixiang, Baoan, Shenzhen, China",22.5941,113.8558,,
China,Shekou,SHEE,CIMC Wetrans Container Logistics (Shenzhen),"Mawan Rd 1045, Nanshan, Shenzhen, China",22.4838,113.898,,
China,Shekou,SHEJ,SHENZHEN GREATING FORTUNE AUTO,"Mawan Ave, Nanshan, Shenzhen 518067, China",22.4831,113.8995,,
China,Shekou,SHEL,Shenzhen Dachan Bay Modern Port Dev,"Da Chan Bay Terminal, Bao An, Shenzhen, China",22.5397,113.8656,,
China,Shekou,SHEM,HK Sumputous Int'l Ltd. - Shekou Depot,"Hanghai Rd, Qianhai FTZ, Nanshan, Shenzhen 518054, China",22.5362,113.9276,,
China,Shekou,SHEN,Guangzhou Sanlly Container Services,"Hanghai Rd, Nanshan, Shenzhen, China",22.4922,113.902,,
Singapore,Singapore,SINC,Eng Kong Container Agencies,"61 Tuas South Street 5, Singapore 637382",1.2924,103.6244,,
Singapore,Singapore,SINGF,Wing Seng Logistics Pte Ltd,"12 Tuas View Circuit, Singapore 637468",1.293,103.6275,,
Singapore,Singapore,SINH,CWT Integrated Pte Ltd,"22 Pioneer Sector 2, Singapore 628380",1.3139,103.675,,
Singapore,Singapore,SINHRT,CWT Integrated Pte Ltd (Reefers and Tanks),"12 Tuas South Street 2, Singapore 638039",1.2905,103.6263,,
Singapore,Singapore,SINJ,Container Connections Pte. Ltd.,"14 Tuas View Circuit, Singapore 639930",1.2938,103.6303,,
Singapore,Singapore,SINJTA,Container Connection Pte Ltd (Tanks),"16 Tuas View Circuit, Singapore 637359",1.2939,103.6289,,
Singapore,Singapore,SINK,Cogent Container Depot Pte Ltd,"1 Buroh Crescent, Singapore 627545",1.3205,103.7099,,
Singapore,Singapore,SINN,Pacific Trans Pte Ltd.,"15A Tuas South Avenue 12, Singapore 637133",1.2737,103.6272,,
Singapore,Singapore,SINO,Chuan Li Container Pte Ltd,"12A Refinery Road, Singapore 628193",1.2853,103.7087,,
Singapore,Singapore,SINW,ACW engineering & Marine Services Ptd Ltd.,"36 Penjuru Road, Singapore 609149",1.3209,103.7236,,
UK,Southampton,SOU05,Eldapoint Ltd.,"Ealing Wharf, High Street, Totton, Southampton SO40 4TE, UK",50.9203,-1.498,,
Indonesia,Semarang,SRGA,PT Multi Bina Pura International,"Kawasan Industri Cipta Blok 2, Semarang 05175, Indonesia",-6.9567,110.4208,,
Indonesia,Semarang,SRGG,PT.GREATING FORTUNE LOGISTIK (SEMARANG),"Kawasan Industri Cipta Guna Blok 7, Semarang 50175, Indonesia",-6.9567,110.4208,,
USA,Oakland (SFO),SFOL,ConGlobal Industries - Burma Location,"189 Burma Rd, Oakland CA 94607, USA",37.8141,-122.3456,,
USA,Oakland (SFO),SFOP,Oakland Wilbur - Conglobal,"3201 Wilbur Ave, Antioch CA 94509, USA",38.0086,-121.8147,,
Indonesia,Surabaya,SUBB,P.T. Tungya Collins Terminal,"Jln. Margomulyo 41, Surabaya, Indonesia",-7.2362,112.6846,,
Indonesia,Surabaya,SUBC,P.T. Wiratama Dekon Perkasa,"Jl. Tanjung Kalianak Kav 8, Surabaya, Indonesia",-7.2225,112.7006,,
Indonesia,Surabaya,SUBG,PT. Greating Fortune Indonesia,"Jl. Raya Greges No. 06, Surabaya 60184, Indonesia",-7.2063,112.6957,,
Australia,Sydney,SYDJ,Tyne Container Services Pty Ltd. (Punchbowl),"111 Bonds Rd, Punchbowl NSW, Australia",-33.9276,151.0644,,
Australia,Sydney,SYDK,ACFS Port Logistics PTY LTD - Sydney e-Rail,"Gate E5, Mainline Rd, Strathfield NSW 2135, Australia",-33.8728,151.093,,
Austria,Salzburg,SZG01,CTS CONTAINER TERMINAL SALZBURG GMBH,"Terminalstrasse 1, 5071 Wals/Salzburg, Austria",47.7932,12.9964,,
Chile,Talcahuano,TALD,Agencias Universales S.A,"Blanco Encalada 701, Recintos Portuarios, Talcahuano, Chile",-36.7156,-73.1182,,
Chile,Talcahuano,TALST,Sitrans Talcahuano,"Avda. Rocoto 2000, Talcahuano, Chile",-36.7351,-73.1024,,
China,Tianjin,TJNA,"Tianjin Keyun Logistics Co., Ltd","Tianjin, China",39.3434,117.3616,,
China,Tianjin,TJNE,Tianjin RunFeng Logistics Co.,"Tianjin 300456, China",39.3434,117.3616,,
China,Tianjin,TJNG,Singamas Logistics (Tianjin),"Tianjin 300461, China",39.3434,117.3616,,
China,Tianjin,TJNH,Tianjin Zhaohua Zhongdian,"Tianjin, China",39.3434,117.3616,,
China,Tianjin,TJNI,"CML (Tianjin) Logistics Co., Ltd.","Tianjin, China",39.3434,117.3616,,
China,Tianjin,TJNJ,"Tianjin HaiGangHua Container Tech Co., Ltd","Tianjin 300461, China",39.3434,117.3616,,
USA,St. Louis,STLA,Midwest Systems,"74 Fairmont City Blvd, Fairmont City IL 62201, USA",38.6523,-90.0939,,
Australia,Townsville,TOWE,NSS Port Logistics Pty Ltd,"121-127 Hubert St, South Townsville, QLD 4810, Australia",-19.265,146.8252,,
New Zealand,Tauranga,TRGA,NZL Container Services Limited,"Waimarie St, Mount Maunganui, Tauranga, New Zealand",-37.6557,176.1925,,
New Zealand,Tauranga,TRGB,Specialized Container Services,"Waimarie & Totara St, Mount Maunganui, Tauranga, New Zealand",-37.6529,176.1881,,
Italy,Trieste,TRSA,Auta Marocchi S.p.A.,"Riva Cadamosto 12, 34147 Trieste, Italy",45.6334,13.7681,,
India,Tuticorin,TUTA,Bay Container Terminal Pvt.,"Milavittan, Madurai Bye Pass Rd, Tuticorin 628008, India",8.7642,78.1348,,
Taiwan,Taichung,TXGB,Excellency Container Corp.,"No. 119, Sec 2, Lin-Kang Rd, Lung-Ching, Taichung, Taiwan",24.2111,120.5436,,
Japan,Tokyo,TYOB,"Nippon Express Co., Ltd.","6-chome Tokai, Ohta-ku, Tokyo 143-0001, Japan",35.5917,139.7922,,
Japan,Tokyo,TYOH,"The Sumitomo Warehouse Co., Ltd","6-18 Tokai, Ohta-ku, Tokyo, Japan",35.5917,139.7922,,
USA,St. Louis,STLC,ConGlobal Industries - Sauget,"2345 Sauget Industrial Pkwy, Sauget IL 62206, USA",38.5856,-90.1587,,
Italy,Venice,VCEA,Auta Marocchi S.p.a.,"Via della Chimica 13, 30176 Malcontenta-Venezia, Italy",45.4317,12.2276,,
Mexico,Veracruz,VERB,"Container-Care ICAVE, S.A. de","Carretera Veracruz-Jalapa S/N KM 9.4, Veracruz, Mexico",19.1699,-96.164,,
Austria,Vienna,VIEB,Wiencont Container Terminal,"Freudenauer Hafenstrasse 12, 1020 Wien, Austria",48.2004,16.4417,,
Spain,Valencia,VLCD,Recomar S.A.,"Carretera Moncada-Naquera CV-315, km.6, Naquera, Spain",39.6171,-0.4206,,
Spain,Valencia,VLCF,Tecnica Y Manutencion (TYMSA),"C/ Riu Vinalopo 29, Quart De Poblet, Valencia, Spain",39.4794,-0.4647,,
Spain,Valencia,VLCH,Valencia Container Depot S.L.,"Ronda Del Puerto De Valencia 19-C, Ribarroja, Valencia, Spain",39.5177,-0.5795,,
Spain,Valencia,VLCHRF,Spain Container Depot,"Puerto de Valencia, Valencia, Spain",39.4381,-0.3199,,
Chile,Valparaiso,VPSA,Depositos y Contenedores S.A.,"Av. Bernardo O'Higgins 388, Placilla Oriente, Valparaiso",-33.0654,-71.5518,,
Chile,Valparaiso,VPSB,AGUNSA,"Belgica s/n Placilla, Placilla de Penuelas, Valparaiso",-33.0654,-71.5518,,
Chile,Valparaiso,VPSST,Sitrans Valparaíso,"Av. Tupungato 2821, Curauma, Valparaíso, Chile",-33.0665,-71.5357,,
China,Weihai,WEHA,Sinotrans Central China Co Ltd Weihai Br.,"Daqing Rd, Weihai 264500, Shandong, China",37.5131,122.1205,,
China,Wuhan,WHNA,Wuhan Sinoport Logistics,"9 Ping Jiang West Rd, Yang Luo Dev. Zone, Wuhan 430415, China",30.6434,114.3054,,
China,Xiamen,XIAA,Sinotrans Xiamen,"200 Zhaishang Rd W, Xiamen 361012, China",24.5196,118.0819,,
China,Xiamen,XIAD,Greating Fortune (Xiamen),"Xiang Yu Free Zone (2), Xiamen, China",24.5196,118.0819,,
China,Xiamen,XIAE,Xiamen CIMC Hai Tou Logistics,"No. 111, Jiangang Rd, Haicang, Xiamen, China",24.4823,118.0396,,
China,Xiamen,XIAF,Xiamen Sanlly Container Services,"No. 205 Zhaishang W Rd, Huli, Xiamen 361016, China",24.5398,118.1284,,
China,Xiamen,XIAN04,"Xiamen Xiangyu Singamas Container Co., Ltd.","Xiangyu Modern Logistics Zone, Xiamen 361006, China",24.5196,118.0819,,
China,Yantai,YANA,SINOTRANS YANTAI STORAGE CO.,"Huanhai Rd 89, Zhifu, Yantai 264000, Shandong, China",37.5065,121.3722,,
Japan,Yokohama,YOKA,"Nippon Express Co., Ltd.","1-10 Honmoku Futo, Naka-ku, Yokohama 231-0811, Japan",35.4156,139.6848,,
Japan,Yokohama,YOKN,"The Sumitomo Warehouse Co., Ltd.","19 Honmoku Futo, Naka-ku, Yokohama 231, Japan",35.4156,139.6848,,
China,Yantian,YTI08,SHENZHEN GREATING FORTUNE AUTOMATIZATION,"NO 2, NAN TONG RD, PINGSHAN, SHENZHEN, China",22.6911,114.3468,,
China,Yantian,YTII,Guang Tong Depot,"East Port Area, Yanmei Rd, Yantian, Shenzhen, China",22.56,114.2376,,
China,Yantian,YTIL,"Brigantine Services (Shenzhen) Co., LTD.","No. 3, Jinlong Ave, Pingshan, Shenzhen, China",22.6911,114.3468,,
China,Yantian,YTIM,"Shenzhen REFINED Supply chain co., Ltd.","Jinke Rd, Longgang, Shenzhen, China",22.7196,114.2477,,
Mexico,Manzanillo,ZLOB,"Container Care ICAVE, S.A.","Carretera Manzanillo-Minatitlan km 3.5, Ejido Jalipa, Mexico",19.1083,-104.2857,,
Mexico,Manzanillo,ZLOONE,Groupo CIMA,"Carr. Manzanillo-Minatitlan km 3.5, Col. 28876, Mexico",19.1083,-104.2857,,
